start=new Date('2022-10-07T00:00:00.000Z').valueOf();
sats=[{"NORAD_CAT_ID":"45372","TLE_LINE2":"2 45372  53.0539  18.7366 0001746  54.7420 305.3732 15.06401188141305","MEAN_MOTION_DDOT":"0.0000000000000","MEAN_ELEMENT_THEORY":"SGP4","INCLINATION":"53.0539","RA_OF_ASC_NODE":"18.7366","OBJECT_ID":"2020-019N","MEAN_MOTION_DOT":"0.00010886","REF_FRAME":"TEME","REV_AT_EPOCH":"14130","MEAN_MOTION":"15.06401188","TIME_SYSTEM":"UTC","RCS_SIZE":"LARGE","CENTER_NAME":"EARTH","ELEMENT_SET_NO":"999","APOAPSIS":"548.419","LAUNCH_DATE":"2020-03-18","ARG_OF_PERICENTER":"54.7420","DECAY_DATE":null,"PERIOD":"95.592","OBJECT_NAME":"STARLINK-1288","MEAN_ANOMALY":"305.3732","PERIAPSIS":"546.001","ECCENTRICITY":"0.00017460","TLE_LINE1":"1 45372U 20019N   22279.54307185  .00010886  00000-0  74854-3 0  9992","SEMIMAJOR_AXIS":"6925.345","OBJECT_TYPE":"PAYLOAD","BSTAR":"0.00074854000000","EPOCH":"2022-10-06T13:02:01.407840","COUNTRY_CODE":"US","SITE":"AFETR","EPHEMERIS_TYPE":"0","GP_ID":"214332772","FILE":"3594454","CLASSIFICATION_TYPE":"U"},{"ARG_OF_PERICENTER":"65.8008","DECAY_DATE":null,"LAUNCH_DATE":"2020-03-18","APOAPSIS":"548.316","CENTER_NAME":"EARTH","ELEMENT_SET_NO":"999","MEAN_MOTION":"15.06396703","TIME_SYSTEM":"UTC","RCS_SIZE":"LARGE","REV_AT_EPOCH":"14131","MEAN_MOTION_DOT":"0.00000789","REF_FRAME":"TEME","OBJECT_ID":"2020-019P","MEAN_MOTION_DDOT":"0.0000000000000","MEAN_ELEMENT_THEORY":"SGP4","INCLINATION":"53.0563","RA_OF_ASC_NODE":"18.5255","NORAD_CAT_ID":"45373","TLE_LINE2":"2 45373  53.0563  18.5255 0001577  65.8008 294.3145 15.06396703141317","CLASSIFICATION_TYPE":"U","FILE":"3594620","GP_ID":"214356161","EPHEMERIS_TYPE":"0","COUNTRY_CODE":"US","SITE":"AFETR","EPOCH":"2022-10-06T14:11:01.148064","SEMIMAJOR_AXIS":"6925.359","BSTAR":"0.00007184200000","OBJECT_TYPE":"PAYLOAD","TLE_LINE1":"1 45373U 20019P   22279.59098551  .00000789  00000-0  71842-4 0  9998","OBJECT_NAME":"STARLINK-1295","PERIAPSIS":"546.132","ECCENTRICITY":"0.00015770","MEAN_ANOMALY":"294.3145","PERIOD":"95.592"},{"ARG_OF_PERICENTER":"77.0753","DECAY_DATE":null,"LAUNCH_DATE":"2020-03-18","ELEMENT_SET_NO":"999","CENTER_NAME":"EARTH","APOAPSIS":"548.299","MEAN_MOTION":"15.06400475","TIME_SYSTEM":"UTC","RCS_SIZE":"LARGE","MEAN_MOTION_DOT":"0.00002564","REF_FRAME":"TEME","REV_AT_EPOCH":"14132","OBJECT_ID":"2020-019Q","NORAD_CAT_ID":"45374","TLE_LINE2":"2 45374  53.0560  18.2501 0001570  77.0753 283.0411 15.06400475141325","MEAN_MOTION_DDOT":"0.0000000000000","MEAN_ELEMENT_THEORY":"SGP4","INCLINATION":"53.0560","RA_OF_ASC_NODE":"18.2501","CLASSIFICATION_TYPE":"U","FILE":"3594620","EPHEMERIS_TYPE":"0","GP_ID":"214356413","EPOCH":"2022-10-06T15:41:15.070560","COUNTRY_CODE":"US","SITE":"AFETR","TLE_LINE1":"1 45374U 20019Q   22279.65364665  .00002564  00000-0  19095-3 0  9992","SEMIMAJOR_AXIS":"6925.347","BSTAR":"0.00019095000000","OBJECT_TYPE":"PAYLOAD","OBJECT_NAME":"STARLINK-1300","PERIAPSIS":"546.125","MEAN_ANOMALY":"283.0411","ECCENTRICITY":"0.00015700","PERIOD":"95.592"},{"PERIOD":"95.593","OBJECT_NAME":"STARLINK-1302","PERIAPSIS":"546.146","MEAN_ANOMALY":"298.0006","ECCENTRICITY":"0.00015730","TLE_LINE1":"1 45375U 20019R   22279.80109196 -.00000366  00000-0 -56968-5 0  9998","SEMIMAJOR_AXIS":"6925.371","BSTAR":"-0.00000569680000","OBJECT_TYPE":"PAYLOAD","EPOCH":"2022-10-06T19:13:34.345344","COUNTRY_CODE":"US","SITE":"AFETR","EPHEMERIS_TYPE":"0","GP_ID":"214357138","FILE":"3594620","CLASSIFICATION_TYPE":"U","NORAD_CAT_ID":"45375","TLE_LINE2":"2 45375  53.0562  17.5758 0001573  62.1142 298.0006 15.06392774141344","MEAN_MOTION_DDOT":"0.0000000000000","MEAN_ELEMENT_THEORY":"SGP4","RA_OF_ASC_NODE":"17.5758","INCLINATION":"53.0562","OBJECT_ID":"2020-019R","MEAN_MOTION_DOT":"-0.00000366","REF_FRAME":"TEME","REV_AT_EPOCH":"14134","MEAN_MOTION":"15.06392774","TIME_SYSTEM":"UTC","RCS_SIZE":"LARGE","ELEMENT_SET_NO":"999","CENTER_NAME":"EARTH","APOAPSIS":"548.325","LAUNCH_DATE":"2020-03-18","ARG_OF_PERICENTER":"62.1142","DECAY_DATE":null},{"ARG_OF_PERICENTER":"67.0918","DECAY_DATE":null,"LAUNCH_DATE":"2020-03-18","ELEMENT_SET_NO":"999","CENTER_NAME":"EARTH","APOAPSIS":"548.415","MEAN_MOTION":"15.06403595","TIME_SYSTEM":"UTC","RCS_SIZE":"LARGE","MEAN_MOTION_DOT":"0.00007769","REF_FRAME":"TEME","REV_AT_EPOCH":"14133","OBJECT_ID":"2020-019S","TLE_LINE2":"2 45376  53.0547  17.7935 0001751  67.0918 293.0256 15.06403595141335","NORAD_CAT_ID":"45376","MEAN_MOTION_DDOT":"0.0000000000000","MEAN_ELEMENT_THEORY":"SGP4","INCLINATION":"53.0547","RA_OF_ASC_NODE":"17.7935","CLASSIFICATION_TYPE":"U","FILE":"3594620","EPHEMERIS_TYPE":"0","GP_ID":"214355412","EPOCH":"2022-10-06T18:04:33.745440","COUNTRY_CODE":"US","SITE":"AFETR","TLE_LINE1":"1 45376U 20019S   22279.75316835  .00007769  00000-0  53980-3 0  9994","SEMIMAJOR_AXIS":"6925.338","BSTAR":"0.00053980000000","OBJECT_TYPE":"PAYLOAD","OBJECT_NAME":"STARLINK-1304","MEAN_ANOMALY":"293.0256","PERIAPSIS":"545.990","ECCENTRICITY":"0.00017510","PERIOD":"95.592"},{"OBJECT_ID":"2020-019T","MEAN_ELEMENT_THEORY":"SGP4","MEAN_MOTION_DDOT":"0.0000000000000","INCLINATION":"53.0573","RA_OF_ASC_NODE":"17.9731","TLE_LINE2":"2 45377  53.0573  17.9731 0001456  59.0564 301.0568 15.06401899141332","NORAD_CAT_ID":"45377","MEAN_MOTION":"15.06401899","TIME_SYSTEM":"UTC","RCS_SIZE":"LARGE","REV_AT_EPOCH":"14133","MEAN_MOTION_DOT":"-0.00000352","REF_FRAME":"TEME","APOAPSIS":"548.216","ELEMENT_SET_NO":"999","CENTER_NAME":"EARTH","ARG_OF_PERICENTER":"59.0564","DECAY_DATE":null,"LAUNCH_DATE":"2020-03-18","PERIOD":"95.592","SEMIMAJOR_AXIS":"6925.343","BSTAR":"-0.00000471370000","OBJECT_TYPE":"PAYLOAD","TLE_LINE1":"1 45377U 20019T   22279.71262106 -.00000352  00000-0 -47137-5 0  9994","OBJECT_NAME":"STARLINK-1305","MEAN_ANOMALY":"301.0568","PERIAPSIS":"546.199","ECCENTRICITY":"0.00014560","GP_ID":"214355662","EPHEMERIS_TYPE":"0","COUNTRY_CODE":"US","SITE":"AFETR","EPOCH":"2022-10-06T17:06:10.459584","CLASSIFICATION_TYPE":"U","FILE":"3594620"},{"LAUNCH_DATE":"2020-03-18","ARG_OF_PERICENTER":"61.9545","DECAY_DATE":null,"ELEMENT_SET_NO":"999","CENTER_NAME":"EARTH","APOAPSIS":"548.234","MEAN_MOTION_DOT":"0.00005272","REF_FRAME":"TEME","REV_AT_EPOCH":"14131","MEAN_MOTION":"15.06399486","RCS_SIZE":"LARGE","TIME_SYSTEM":"UTC","NORAD_CAT_ID":"45378","TLE_LINE2":"2 45378  53.0565  18.6217 0001471  61.9545 298.1592 15.06399486141318","MEAN_MOTION_DDOT":"0.0000000000000","MEAN_ELEMENT_THEORY":"SGP4","RA_OF_ASC_NODE":"18.6217","INCLINATION":"53.0565","OBJECT_ID":"2020-019U","FILE":"3594620","CLASSIFICATION_TYPE":"U","EPOCH":"2022-10-06T13:39:10.520064","COUNTRY_CODE":"US","SITE":"AFETR","EPHEMERIS_TYPE":"0","GP_ID":"214356912","OBJECT_NAME":"STARLINK-1310","MEAN_ANOMALY":"298.1592","PERIAPSIS":"546.196","ECCENTRICITY":"0.00014710","TLE_LINE1":"1 45378U 20019U   22279.56887176  .00005272  00000-0  37259-3 0  9994","SEMIMAJOR_AXIS":"6925.350","OBJECT_TYPE":"PAYLOAD","BSTAR":"0.00037259000000","PERIOD":"95.592"},{"OBJECT_ID":"2020-019V","MEAN_MOTION_DDOT":"0.0000000000000","MEAN_ELEMENT_THEORY":"SGP4","RA_OF_ASC_NODE":"18.9062","INCLINATION":"53.0562","NORAD_CAT_ID":"45379","TLE_LINE2":"2 45379  53.0562  18.9062 0001427  68.0535 292.0605 15.06384799141303","MEAN_MOTION":"15.06384799","TIME_SYSTEM":"UTC","RCS_SIZE":"LARGE","REV_AT_EPOCH":"14130","MEAN_MOTION_DOT":"0.00000758","REF_FRAME":"TEME","APOAPSIS":"548.248","CENTER_NAME":"EARTH","ELEMENT_SET_NO":"999","ARG_OF_PERICENTER":"68.0535","DECAY_DATE":null,"LAUNCH_DATE":"2020-03-18","PERIOD":"95.593","SEMIMAJOR_AXIS":"6925.395","BSTAR":"0.00006978800000","OBJECT_TYPE":"PAYLOAD","TLE_LINE1":"1 45379U 20019V   22279.50621242  .00000758  00000-0  69788-4 0  9996","OBJECT_NAME":"STARLINK-1319","ECCENTRICITY":"0.00014270","PERIAPSIS":"546.272","MEAN_ANOMALY":"292.0605","GP_ID":"214322106","EPHEMERIS_TYPE":"0","COUNTRY_CODE":"US","SITE":"AFETR","EPOCH":"2022-10-06T12:08:56.753088","CLASSIFICATION_TYPE":"U","FILE":"3594015"},{"SEMIMAJOR_AXIS":"6925.358","OBJECT_TYPE":"PAYLOAD","BSTAR":"0.00049993000000","TLE_LINE1":"1 45380U 20019W   22279.50435854  .00007172  00000-0  49993-3 0  9992","OBJECT_NAME":"STARLINK-1207","MEAN_ANOMALY":"308.8077","PERIAPSIS":"545.846","ECCENTRICITY":"0.00019880","PERIOD":"95.592","CLASSIFICATION_TYPE":"U","FILE":"3594494","GP_ID":"214334036","EPHEMERIS_TYPE":"0","COUNTRY_CODE":"US","SITE":"AFETR","EPOCH":"2022-10-06T12:06:16.577856","MEAN_MOTION":"15.06396980","TIME_SYSTEM":"UTC","RCS_SIZE":"LARGE","REV_AT_EPOCH":"14158","MEAN_MOTION_DOT":"0.00007172","REF_FRAME":"TEME","OBJECT_ID":"2020-019W","MEAN_ELEMENT_THEORY":"SGP4","MEAN_MOTION_DDOT":"0.0000000000000","INCLINATION":"53.0548","RA_OF_ASC_NODE":"358.9282","TLE_LINE2":"2 45380  53.0548 358.9282 0001988  51.3089 308.8077 15.06396980141585","NORAD_CAT_ID":"45380","ARG_OF_PERICENTER":"51.3089","DECAY_DATE":null,"LAUNCH_DATE":"2020-03-18","APOAPSIS":"548.600","CENTER_NAME":"EARTH","ELEMENT_SET_NO":"999"},{"OBJECT_NAME":"STARLINK-1258","MEAN_ANOMALY":"283.6763","PERIAPSIS":"546.287","ECCENTRICITY":"0.00013780","SEMIMAJOR_AXIS":"6925.376","BSTAR":"0.00006140900000","OBJECT_TYPE":"PAYLOAD","TLE_LINE1":"1 45381U 20019X   22279.44907866  .00000633  00000-0  61409-4 0  9995","PERIOD":"95.593","FILE":"3593749","CLASSIFICATION_TYPE":"U","COUNTRY_CODE":"US","SITE":"AFETR","EPOCH":"2022-10-06T10:46:40.396224","GP_ID":"214310345","EPHEMERIS_TYPE":"0","REV_AT_EPOCH":"14156","MEAN_MOTION_DOT":"0.00000633","REF_FRAME":"TEME","MEAN_MOTION":"15.06390954","RCS_SIZE":"LARGE","TIME_SYSTEM":"UTC","MEAN_MOTION_DDOT":"0.0000000000000","MEAN_ELEMENT_THEORY":"SGP4","INCLINATION":"53.0556","RA_OF_ASC_NODE":"359.1761","NORAD_CAT_ID":"45381","TLE_LINE2":"2 45381  53.0556 359.1761 0001378  76.4379 283.6763 15.06390954141568","OBJECT_ID":"2020-019X","LAUNCH_DATE":"2020-03-18","ARG_OF_PERICENTER":"76.4379","DECAY_DATE":null,"APOAPSIS":"548.196","CENTER_NAME":"EARTH","ELEMENT_SET_NO":"999"}];
